[
    {
        "Altitude(m)": 703817.1949102825,
        "Argument of Periapsis(deg)": 0.009112096949301655,
        "Eccentricity": 0.0,
        "Inclination(deg)": 45.0,
        "Latitude(deg)": 27.038299123076488,
        "Longitude(deg)": 68.88142891162124,
        "Mean Anomaly(deg)": 140.13567331798467,
        "RAAN(deg)": 19.991398446833436,
        "Satellite Name": "Constellation 1 96",
        "Satellite Number": 96,
        "Semi-Major Axis(m)": 7083131.272910544,
        "Time(s)": 152
    },
    {
        "Altitude(m)": 703811.9496421048,
        "Argument of Periapsis(deg)": 0.009172044955547059,
        "Eccentricity": 0.0,
        "Inclination(deg)": 45.0,
        "Latitude(deg)": 27.001115405227083,
        "Longitude(deg)": 68.93126821435027,
        "Mean Anomaly(deg)": 140.19637445823457,
        "RAAN(deg)": 19.991341857667866,
        "Satellite Name": "Constellation 1 96",
        "Satellite Number": 96,
        "Semi-Major Axis(m)": 7083131.272910544,
        "Time(s)": 153
    },
    {
        "Altitude(m)": 703806.7119030871,
        "Argument of Periapsis(deg)": 0.009231992961792466,
        "Eccentricity": 0.0,
        "Inclination(deg)": 45.0,
        "Latitude(deg)": 26.963910858077472,
        "Longitude(deg)": 68.98107204426191,
        "Mean Anomaly(deg)": 140.25707559848445,
        "RAAN(deg)": 19.9912852685023,
        "Satellite Name": "Constellation 1 96",
        "Satellite Number": 96,
        "Semi-Major Axis(m)": 7083131.272910544,
        "Time(s)": 154
    },
    {
        "Altitude(m)": 703801.481731488,
        "Argument of Periapsis(deg)": 0.009291940968037872,
        "Eccentricity": 0.0,
        "Inclination(deg)": 45.0,
        "Latitude(deg)": 26.92668552815201,
        "Longitude(deg)": 69.03084046180673,
        "Mean Anomaly(deg)": 140.31777673873438,
        "RAAN(deg)": 19.99122867933673,
        "Satellite Name": "Constellation 1 96",
        "Satellite Number": 96,
        "Semi-Major Axis(m)": 7083131.272910544,
        "Time(s)": 155
    },
    {
        "Altitude(m)": 703796.2591655565,
        "Argument of Periapsis(deg)": 0.009351888974283276,
        "Eccentricity": 0.0,
        "Inclination(deg)": 45.0,
        "Latitude(deg)": 26.889439461907102,
        "Longitude(deg)": 69.08057335935105,
        "Mean Anomaly(deg)": 140.37847787898426,
        "RAAN(deg)": 19.99117209017116,
        "Satellite Name": "Constellation 1 96",
        "Satellite Number": 96,
        "Semi-Major Axis(m)": 7083131.272910544,
        "Time(s)": 156
    },
    {
        "Altitude(m)": 703791.0442435045,
        "Argument of Periapsis(deg)": 0.00941183698052868,
        "Eccentricity": 0.0,
        "Inclination(deg)": 45.0,
        "Latitude(deg)": 26.852172705731817,
        "Longitude(deg)": 69.13027113356509,
        "Mean Anomaly(deg)": 140.43917901923416,
        "RAAN(deg)": 19.991115501005588,
        "Satellite Name": "Constellation 1 96",
        "Satellite Number": 96,
        "Semi-Major Axis(m)": 7083131.272910544,
        "Time(s)": 157
    },
    {
        "Altitude(m)": 703785.8370035348,
        "Argument of Periapsis(deg)": 0.009471784986774088,
        "Eccentricity": 0.0,
        "Inclination(deg)": 45.0,
        "Latitude(deg)": 26.814885305947392,
        "Longitude(deg)": 69.17993367683943,
        "Mean Anomaly(deg)": 140.49988015948404,
        "RAAN(deg)": 19.991058911840017,
        "Satellite Name": "Constellation 1 96",
        "Satellite Number": 96,
        "Semi-Major Axis(m)": 7083131.272910544,
        "Time(s)": 158
    },
    {
        "Altitude(m)": 703780.6374838289,
        "Argument of Periapsis(deg)": 0.009531732993019492,
        "Eccentricity": 0.0,
        "Inclination(deg)": 45.0,
        "Latitude(deg)": 26.777577308807484,
        "Longitude(deg)": 69.22956104967359,
        "Mean Anomaly(deg)": 140.56058129973397,
        "RAAN(deg)": 19.99100232267445,
        "Satellite Name": "Constellation 1 96",
        "Satellite Number": 96,
        "Semi-Major Axis(m)": 7083131.272910544,
        "Time(s)": 159
    },
    {
        "Altitude(m)": 703775.4457225398,
        "Argument of Periapsis(deg)": 0.009591680999264898,
        "Eccentricity": 0.0,
        "Inclination(deg)": 45.0,
        "Latitude(deg)": 26.740248760498414,
        "Longitude(deg)": 69.2791533125781,
        "Mean Anomaly(deg)": 140.62128243998384,
        "RAAN(deg)": 19.99094573350888,
        "Satellite Name": "Constellation 1 96",
        "Satellite Number": 96,
        "Semi-Major Axis(m)": 7083131.272910544,
        "Time(s)": 160
    },
    {
        "Altitude(m)": 703770.261757798,
        "Argument of Periapsis(deg)": 0.009651629005510304,
        "Eccentricity": 0.0,
        "Inclination(deg)": 45.0,
        "Latitude(deg)": 26.702899707139153,
        "Longitude(deg)": 69.32871052607427,
        "Mean Anomaly(deg)": 140.68198358023378,
        "RAAN(deg)": 19.99088914434331,
        "Satellite Name": "Constellation 1 96",
        "Satellite Number": 96,
        "Semi-Major Axis(m)": 7083131.272910544,
        "Time(s)": 161
    },
    {
        "Altitude(m)": 703765.0856277206,
        "Argument of Periapsis(deg)": 0.00971157701175571,
        "Eccentricity": 0.0,
        "Inclination(deg)": 45.0,
        "Latitude(deg)": 26.66553019478143,
        "Longitude(deg)": 69.37823275069381,
        "Mean Anomaly(deg)": 140.74268472048365,
        "RAAN(deg)": 19.990832555177743,
        "Satellite Name": "Constellation 1 96",
        "Satellite Number": 96,
        "Semi-Major Axis(m)": 7083131.272910544,
        "Time(s)": 162
    },
    {
        "Altitude(m)": 703759.9173703985,
        "Argument of Periapsis(deg)": 0.009771525018001118,
        "Eccentricity": 0.0,
        "Inclination(deg)": 45.0,
        "Latitude(deg)": 26.628140269409574,
        "Longitude(deg)": 69.42771987888113,
        "Mean Anomaly(deg)": 140.80338586073356,
        "RAAN(deg)": 19.990775966012173,
        "Satellite Name": "Constellation 1 96",
        "Satellite Number": 96,
        "Semi-Major Axis(m)": 7083131.272910544,
        "Time(s)": 163
    },
    {
        "Altitude(m)": 703754.7570238955,
        "Argument of Periapsis(deg)": 0.00983147302424652,
        "Eccentricity": 0.0,
        "Inclination(deg)": 45.0,
        "Latitude(deg)": 26.59072997694135,
        "Longitude(deg)": 69.47717230738175,
        "Mean Anomaly(deg)": 140.86408700098343,
        "RAAN(deg)": 19.990719376846602,
        "Satellite Name": "Constellation 1 96",
        "Satellite Number": 96,
        "Semi-Major Axis(m)": 7083131.272910544,
        "Time(s)": 164
    },
    {
        "Altitude(m)": 703749.6046262628,
        "Argument of Periapsis(deg)": 0.009891421030491928,
        "Eccentricity": 0.0,
        "Inclination(deg)": 45.0,
        "Latitude(deg)": 26.55329936322704,
        "Longitude(deg)": 69.52658992865877,
        "Mean Anomaly(deg)": 140.92478814123336,
        "RAAN(deg)": 19.990662787681035,
        "Satellite Name": "Constellation 1 96",
        "Satellite Number": 96,
        "Semi-Major Axis(m)": 7083131.272910544,
        "Time(s)": 165
    },
    {
        "Altitude(m)": 703744.4602155187,
        "Argument of Periapsis(deg)": 0.009951369036737332,
        "Eccentricity": 0.0,
        "Inclination(deg)": 45.0,
        "Latitude(deg)": 26.515848474050244,
        "Longitude(deg)": 69.5759728032812,
        "Mean Anomaly(deg)": 140.98548928148324,
        "RAAN(deg)": 19.99060619851546,
        "Satellite Name": "Constellation 1 96",
        "Satellite Number": 96,
        "Semi-Major Axis(m)": 7083131.272910544,
        "Time(s)": 166
    },
    {
        "Altitude(m)": 703739.3238296648,
        "Argument of Periapsis(deg)": 0.010011317042982738,
        "Eccentricity": 0.0,
        "Inclination(deg)": 45.0,
        "Latitude(deg)": 26.478377355127577,
        "Longitude(deg)": 69.62532099182653,
        "Mean Anomaly(deg)": 141.04619042173317,
        "RAAN(deg)": 19.990549609349895,
        "Satellite Name": "Constellation 1 96",
        "Satellite Number": 96,
        "Semi-Major Axis(m)": 7083131.272910544,
        "Time(s)": 167
    },
    {
        "Altitude(m)": 703734.1955066725,
        "Argument of Periapsis(deg)": 0.010071265049228144,
        "Eccentricity": 0.0,
        "Inclination(deg)": 45.0,
        "Latitude(deg)": 26.44088605210908,
        "Longitude(deg)": 69.67463455488006,
        "Mean Anomaly(deg)": 141.10689156198305,
        "RAAN(deg)": 19.990493020184324,
        "Satellite Name": "Constellation 1 96",
        "Satellite Number": 96,
        "Semi-Major Axis(m)": 7083131.272910544,
        "Time(s)": 168
    },
    {
        "Altitude(m)": 703729.0752845017,
        "Argument of Periapsis(deg)": 0.01013121305547355,
        "Eccentricity": 0.0,
        "Inclination(deg)": 45.0,
        "Latitude(deg)": 26.403374610578012,
        "Longitude(deg)": 69.72391355303475,
        "Mean Anomaly(deg)": 141.16759270223295,
        "RAAN(deg)": 19.990436431018754,
        "Satellite Name": "Constellation 1 96",
        "Satellite Number": 96,
        "Semi-Major Axis(m)": 7083131.272910544,
        "Time(s)": 169
    },
    {
        "Altitude(m)": 703723.963201079,
        "Argument of Periapsis(deg)": 0.010191161061718957,
        "Eccentricity": 0.0,
        "Inclination(deg)": 45.0,
        "Latitude(deg)": 26.365843076051274,
        "Longitude(deg)": 69.77315804689067,
        "Mean Anomaly(deg)": 141.22829384248283,
        "RAAN(deg)": 19.990379841853187,
        "Satellite Name": "Constellation 1 96",
        "Satellite Number": 96,
        "Semi-Major Axis(m)": 7083131.272910544,
        "Time(s)": 170
    }
]